[{"OBJECT_NAME":"STARLINK-31714","OBJECT_ID":"2024-062P","EPOCH":"2026-03-09T22:06:10.654560","MEAN_MOTION":15.30176373,"ECCENTRICITY":0.00017031,"INCLINATION":53.1595,"RA_OF_ASC_NODE":254.8118,"ARG_OF_PERICENTER":103.0264,"MEAN_ANOMALY":257.0927,"EPHEMERIS_TYPE":0,"CLASSIFICATION_TYPE":"U","NORAD_CAT_ID":59387,"ELEMENT_SET_NO":999,"REV_AT_EPOCH":10965,"BSTAR":5.022443e-6,"MEAN_MOTION_DOT":-2.11e-6,"MEAN_MOTION_DDOT":0},{"OBJECT_NAME":"ION SCV-017","OBJECT_ID":"2025-052W","EPOCH":"2026-03-09T17:11:44.577024","MEAN_MOTION":15.26881798,"ECCENTRICITY":0.0023746,"INCLINATION":97.4016,"RA_OF_ASC_NODE":324.7516,"ARG_OF_PERICENTER":44.9875,"MEAN_ANOMALY":315.3282,"EPHEMERIS_TYPE":0,"CLASSIFICATION_TYPE":"U","NORAD_CAT_ID":63230,"ELEMENT_SET_NO":999,"REV_AT_EPOCH":5485,"BSTAR":0.00024539061,"MEAN_MOTION_DOT":6.457e-5,"MEAN_MOTION_DDOT":0}]
